{
    "links": {
        "self": "http://www.neowsapp.com/rest/v1/neo/3750660?api_key=iIulBulltgU6a56xZRHN4H3l9WmuAYTsLGpBGhQ2"
    },
    "id": "3750660",
    "neo_reference_id": "3750660",
    "name": "(2016 GJ134)",
    "designation": "2016 GJ134",
    "nasa_jpl_url": "http://ssd.jpl.nasa.gov/sbdb.cgi?sstr=3750660",
    "absolute_magnitude_h": 23.5,
    "estimated_diameter": {
        "kilometers": {
            "estimated_diameter_min": 0.0530340723,
            "estimated_diameter_max": 0.1185877909
        },
        "meters": {
            "estimated_diameter_min": 53.0340723319,
            "estimated_diameter_max": 118.5877908577
        },
        "miles": {
            "estimated_diameter_min": 0.0329538346,
            "estimated_diameter_max": 0.0736870142
        },
        "feet": {
            "estimated_diameter_min": 173.9963058693,
            "estimated_diameter_max": 389.0675677576
        }
    },
    "is_potentially_hazardous_asteroid": false,
    "close_approach_data": [
        {
            "close_approach_date": "2016-03-21",
            "close_approach_date_full": "2016-Mar-21 19:53",
            "epoch_date_close_approach": 1458589980000,
            "relative_velocity": {
                "kilometers_per_second": "21.8789036767",
                "kilometers_per_hour": "78764.0532359414",
                "miles_per_hour": "48940.9196342993"
            },
            "miss_distance": {
                "astronomical": "0.0456760174",
                "lunar": "17.7679707686",
                "kilometers": "6833034.913122938",
                "miles": "4245851.0122870244"
            },
            "orbiting_body": "Earth"
        }
    ],
    "orbital_data": {
        "orbit_id": "3",
        "orbit_determination_date": "2017-04-06 08:26:45",
        "first_observation_date": "2016-04-03",
        "last_observation_date": "2016-04-07",
        "data_arc_in_days": 4,
        "observations_used": 25,
        "orbit_uncertainty": "9",
        "minimum_orbit_intersection": ".00410561",
        "jupiter_tisserand_invariant": "4.190",
        "epoch_osculation": "2457483.5",
        "eccentricity": ".6644098334729359",
        "semi_major_axis": "1.540940616587404",
        "inclination": ".8590820257694782",
        "ascending_node_longitude": "15.07996876030134",
        "orbital_period": "698.6783416305203",
        "perihelion_distance": ".5171245181288837",
        "perihelion_argument": "62.28744432985269",
        "aphelion_distance": "2.564756715045924",
        "perihelion_time": "2457420.011030382052",
        "mean_anomaly": "32.71323540546811",
        "mean_motion": ".5152585654220516",
        "equinox": "J2000",
        "orbit_class": {
            "orbit_class_type": "APO",
            "orbit_class_description": "Near-Earth asteroid orbits which cross the Earth’s orbit similar to that of 1862 Apollo",
            "orbit_class_range": "a (semi-major axis) > 1.0 AU; q (perihelion) < 1.017 AU"
        }
    },
    "is_sentry_object": false
}